ORBCOMM FM37 [-]        
1 33064U 08031E   24007.26606373  .00001768  00000+0  28572-3 0  9992
2 33064  48.4423 320.3228 0006267 282.6921 219.0727 14.75675908836124
ORBCOMM FM40 [-]        
1 33065U 08031F   24007.30333015  .00002272  00000+0  34927-3 0  9990
2 33065  48.4444 310.6461 0007449 290.6116 232.3687 14.76837168836152
VESSELSAT 1 [-]         
1 37840U 11058C   24007.40094283  .00000375  00000+0  60215-4 0  9992
2 37840  19.9637  40.8094 0013802 151.9659 208.1490 14.11100004631808
ORBCOMM FM111 [-]       
1 40089U 14040D   24007.65539350  .00003245  00000+0  43951-3 0  9997
2 40089  47.0048 117.7477 0034212 203.6679 156.2643 14.80734212512057
ORBCOMM FM104 [-]       
1 40090U 14040E   24007.00977407  .00000688  00000+0  19773-3 0  9990
2 40090  47.0075  10.6967 0018166 317.0117  42.9347 14.54752694503812
